GLOBALSTAR M070         
1 32264U 07048B   25194.88771355 -.00000076  00000+0  15368-3 0  9990
2 32264  51.9761  47.1626 0000796  85.7530 287.6355 12.62320150817042
GLOBALSTAR M066         
1 32265U 07048C   25194.82511373 -.00000076  00000+0  15730-3 0  9990
2 32265  51.9648 309.1993 0004149  39.4678 144.6250 12.29953066818576
GLOBALSTAR M068         
1 32266U 07048D   25194.84841862 -.00000106  00000+0 -98270-5 0  9999
2 32266  51.9860 220.9854 0001128 190.5142 340.9425 12.62826365820923
GLOBALSTAR M079         
1 37188U 10054A   25194.93056744 -.00000096  00000+0  46008-4 0  9993
2 37188  52.0047  58.3749 0000886  52.1604 321.5006 12.62265456679832
GLOBALSTAR M074         
1 37189U 10054B   25194.87809000 -.00000089  00000+0  83484-4 0  9999
2 37189  52.0028  57.8552 0000949  72.1643 301.2340 12.62266618680438
GLOBALSTAR M076         
1 37190U 10054C   25194.90611823 -.00000085  00000+0  10394-3 0  9994
2 37190  52.0039  57.9415 0001046  62.2441 319.5073 12.62263541680152
GLOBALSTAR M077         
1 37191U 10054D   25194.92432374 -.00000111  00000+0 -39474-4 0  9991
2 37191  52.0088  14.7500 0000887  87.5255  77.4395 12.62268816680526
